[{"OBJECT_NAME":"STARLINK-5247","OBJECT_ID":"2022-141AY","EPOCH":"2026-03-09T23:23:21.342912","MEAN_MOTION":15.0885457,"ECCENTRICITY":0.00015492,"INCLINATION":53.2189,"RA_OF_ASC_NODE":352.6533,"ARG_OF_PERICENTER":48.7777,"MEAN_ANOMALY":311.3348,"EPHEMERIS_TYPE":0,"CLASSIFICATION_TYPE":"U","NORAD_CAT_ID":54203,"ELEMENT_SET_NO":999,"REV_AT_EPOCH":18604,"BSTAR":0.00013108326,"MEAN_MOTION_DOT":1.8e-5,"MEAN_MOTION_DDOT":0},{"OBJECT_NAME":"CHAMRAN-1","OBJECT_ID":"2024-165B","EPOCH":"2026-03-09T21:50:33.228384","MEAN_MOTION":15.10235792,"ECCENTRICITY":0.0045019,"INCLINATION":64.0789,"RA_OF_ASC_NODE":8.4365,"ARG_OF_PERICENTER":310.8781,"MEAN_ANOMALY":48.8437,"EPHEMERIS_TYPE":0,"CLASSIFICATION_TYPE":"U","NORAD_CAT_ID":61072,"ELEMENT_SET_NO":999,"REV_AT_EPOCH":8166,"BSTAR":0.0004432,"MEAN_MOTION_DOT":7.263e-5,"MEAN_MOTION_DDOT":0}]
